[{"OBJECT_NAME":"LEMUR-2-PETERG","OBJECT_ID":"2017-042S","EPOCH":"2026-03-09T11:34:35.656032","MEAN_MOTION":15.29611459,"ECCENTRICITY":0.00037,"INCLINATION":97.398,"RA_OF_ASC_NODE":253.6596,"ARG_OF_PERICENTER":341.6938,"MEAN_ANOMALY":18.4169,"EPHEMERIS_TYPE":0,"CLASSIFICATION_TYPE":"U","NORAD_CAT_ID":42841,"ELEMENT_SET_NO":999,"REV_AT_EPOCH":47317,"BSTAR":0.00081076471,"MEAN_MOTION_DOT":0.0002324,"MEAN_MOTION_DDOT":0},{"OBJECT_NAME":"STARLINK-31439","OBJECT_ID":"2024-045A","EPOCH":"2026-03-09T10:55:09.576480","MEAN_MOTION":15.27578457,"ECCENTRICITY":0.00016226,"INCLINATION":43.0026,"RA_OF_ASC_NODE":90.5713,"ARG_OF_PERICENTER":262.8201,"MEAN_ANOMALY":97.2467,"EPHEMERIS_TYPE":0,"CLASSIFICATION_TYPE":"U","NORAD_CAT_ID":59178,"ELEMENT_SET_NO":999,"REV_AT_EPOCH":4949,"BSTAR":8.7308379e-5,"MEAN_MOTION_DOT":2.141e-5,"MEAN_MOTION_DDOT":0}]
