LEMUR-2-PETERG          
1 42841U 17042S   26068.48235713  .00023240  00000+0  81076-3 0  9993
2 42841  97.3980 253.6596 0003700 341.6938  18.4169 15.29611459473171
STARLINK-31439          
1 59178U 24045A   26068.45497195  .00002141  00000+0  87308-4 0  9998
2 59178  43.0026  90.5713 0001622 262.8201  97.2467 15.27578457 49496
